[{"OBJECT_NAME":"STARLINK-6097","OBJECT_ID":"2023-090E","EPOCH":"2025-07-27T14:53:13.904448","MEAN_MOTION":15.025283,"ECCENTRICITY":7.55e-5,"INCLINATION":43.0025,"RA_OF_ASC_NODE":57.9104,"ARG_OF_PERICENTER":259.5945,"MEAN_ANOMALY":100.4812,"EPHEMERIS_TYPE":0,"CLASSIFICATION_TYPE":"U","NORAD_CAT_ID":57105,"ELEMENT_SET_NO":999,"REV_AT_EPOCH":11541,"BSTAR":6.7438e-5,"MEAN_MOTION_DOT":7.07e-6,"MEAN_MOTION_DDOT":0},{"OBJECT_NAME":"STARLINK-6118","OBJECT_ID":"2023-090F","EPOCH":"2025-07-27T00:23:39.807744","MEAN_MOTION":15.02542246,"ECCENTRICITY":9.89e-5,"INCLINATION":43.0046,"RA_OF_ASC_NODE":61.117,"ARG_OF_PERICENTER":271.3717,"MEAN_ANOMALY":88.7012,"EPHEMERIS_TYPE":0,"CLASSIFICATION_TYPE":"U","NORAD_CAT_ID":57106,"ELEMENT_SET_NO":999,"REV_AT_EPOCH":11646,"BSTAR":-3.8875e-5,"MEAN_MOTION_DOT":-7.29e-6,"MEAN_MOTION_DDOT":0},{"OBJECT_NAME":"STARLINK-6131","OBJECT_ID":"2023-090G","EPOCH":"2025-07-27T06:27:23.516352","MEAN_MOTION":15.02536348,"ECCENTRICITY":0.0001244,"INCLINATION":43.0052,"RA_OF_ASC_NODE":59.5762,"ARG_OF_PERICENTER":267.2814,"MEAN_ANOMALY":92.7886,"EPHEMERIS_TYPE":0,"CLASSIFICATION_TYPE":"U","NORAD_CAT_ID":57107,"ELEMENT_SET_NO":999,"REV_AT_EPOCH":11650,"BSTAR":1.3591e-5,"MEAN_MOTION_DOT":-2.0e-7,"MEAN_MOTION_DDOT":0},{"OBJECT_NAME":"STARLINK-6099","OBJECT_ID":"2023-090H","EPOCH":"2025-07-27T14:48:24.693408","MEAN_MOTION":15.02535366,"ECCENTRICITY":0.0001156,"INCLINATION":43.0059,"RA_OF_ASC_NODE":57.8851,"ARG_OF_PERICENTER":268.7631,"MEAN_ANOMALY":91.3079,"EPHEMERIS_TYPE":0,"CLASSIFICATION_TYPE":"U","NORAD_CAT_ID":57108,"ELEMENT_SET_NO":999,"REV_AT_EPOCH":11655,"BSTAR":-4.8542e-6,"MEAN_MOTION_DOT":-2.69e-6,"MEAN_MOTION_DDOT":0},{"OBJECT_NAME":"STARLINK-6139","OBJECT_ID":"2023-090J","EPOCH":"2025-07-27T20:56:56.311008","MEAN_MOTION":15.02535044,"ECCENTRICITY":0.000128,"INCLINATION":43.0064,"RA_OF_ASC_NODE":56.3689,"ARG_OF_PERICENTER":268.5224,"MEAN_ANOMALY":91.5472,"EPHEMERIS_TYPE":0,"CLASSIFICATION_TYPE":"U","NORAD_CAT_ID":57109,"ELEMENT_SET_NO":999,"REV_AT_EPOCH":11545,"BSTAR":3.796e-5,"MEAN_MOTION_DOT":3.09e-6,"MEAN_MOTION_DDOT":0},{"OBJECT_NAME":"STARLINK-6134","OBJECT_ID":"2023-090K","EPOCH":"2025-07-27T21:12:54.277056","MEAN_MOTION":15.02549435,"ECCENTRICITY":0.0001207,"INCLINATION":43.0049,"RA_OF_ASC_NODE":56.4499,"ARG_OF_PERICENTER":272.2999,"MEAN_ANOMALY":87.7705,"EPHEMERIS_TYPE":0,"CLASSIFICATION_TYPE":"U","NORAD_CAT_ID":57110,"ELEMENT_SET_NO":999,"REV_AT_EPOCH":11545,"BSTAR":7.7782e-5,"MEAN_MOTION_DOT":8.48e-6,"MEAN_MOTION_DDOT":0},{"OBJECT_NAME":"STARLINK-6140","OBJECT_ID":"2023-090L","EPOCH":"2025-07-27T20:39:21.347136","MEAN_MOTION":15.02535688,"ECCENTRICITY":0.0001259,"INCLINATION":43.0054,"RA_OF_ASC_NODE":56.2739,"ARG_OF_PERICENTER":265.043,"MEAN_ANOMALY":95.0269,"EPHEMERIS_TYPE":0,"CLASSIFICATION_TYPE":"U","NORAD_CAT_ID":57111,"ELEMENT_SET_NO":999,"REV_AT_EPOCH":11545,"BSTAR":3.8432e-5,"MEAN_MOTION_DOT":3.16e-6,"MEAN_MOTION_DDOT":0},{"OBJECT_NAME":"STARLINK-6141","OBJECT_ID":"2023-090M","EPOCH":"2025-07-27T21:03:20.311488","MEAN_MOTION":15.0254025,"ECCENTRICITY":0.000129,"INCLINATION":43.0039,"RA_OF_ASC_NODE":56.4005,"ARG_OF_PERICENTER":274.7174,"MEAN_ANOMALY":85.3521,"EPHEMERIS_TYPE":0,"CLASSIFICATION_TYPE":"U","NORAD_CAT_ID":57112,"ELEMENT_SET_NO":999,"REV_AT_EPOCH":11545,"BSTAR":0.00030302,"MEAN_MOTION_DOT":3.892e-5,"MEAN_MOTION_DDOT":0},{"OBJECT_NAME":"STARLINK-6142","OBJECT_ID":"2023-090N","EPOCH":"2025-07-27T06:25:47.535456","MEAN_MOTION":15.02538082,"ECCENTRICITY":0.0001244,"INCLINATION":43.0048,"RA_OF_ASC_NODE":59.5697,"ARG_OF_PERICENTER":266.4539,"MEAN_ANOMALY":93.6161,"EPHEMERIS_TYPE":0,"CLASSIFICATION_TYPE":"U","NORAD_CAT_ID":57113,"ELEMENT_SET_NO":999,"REV_AT_EPOCH":11650,"BSTAR":6.1989e-5,"MEAN_MOTION_DOT":6.34e-6,"MEAN_MOTION_DDOT":0},{"OBJECT_NAME":"STARLINK-6125","OBJECT_ID":"2023-090P","EPOCH":"2025-07-27T20:42:33.127488","MEAN_MOTION":15.02542867,"ECCENTRICITY":9.25e-5,"INCLINATION":43.0035,"RA_OF_ASC_NODE":56.2939,"ARG_OF_PERICENTER":273.9017,"MEAN_ANOMALY":86.172,"EPHEMERIS_TYPE":0,"CLASSIFICATION_TYPE":"U","NORAD_CAT_ID":57114,"ELEMENT_SET_NO":999,"REV_AT_EPOCH":11545,"BSTAR":-5.2598e-5,"MEAN_MOTION_DOT":-9.14e-6,"MEAN_MOTION_DDOT":0},{"OBJECT_NAME":"STARLINK-6085","OBJECT_ID":"2023-090Q","EPOCH":"2025-07-27T15:11:56.472000","MEAN_MOTION":15.03770588,"ECCENTRICITY":0.0003131,"INCLINATION":43.0028,"RA_OF_ASC_NODE":57.1549,"ARG_OF_PERICENTER":227.379,"MEAN_ANOMALY":132.6789,"EPHEMERIS_TYPE":0,"CLASSIFICATION_TYPE":"U","NORAD_CAT_ID":57115,"ELEMENT_SET_NO":999,"REV_AT_EPOCH":11656,"BSTAR":0.0010995,"MEAN_MOTION_DOT":0.00015176,"MEAN_MOTION_DDOT":0},{"OBJECT_NAME":"STARLINK-6129","OBJECT_ID":"2023-090R","EPOCH":"2025-07-27T20:52:09.044832","MEAN_MOTION":15.02532622,"ECCENTRICITY":4.7e-5,"INCLINATION":43.0022,"RA_OF_ASC_NODE":56.3447,"ARG_OF_PERICENTER":244.508,"MEAN_ANOMALY":115.5713,"EPHEMERIS_TYPE":0,"CLASSIFICATION_TYPE":"U","NORAD_CAT_ID":57116,"ELEMENT_SET_NO":999,"REV_AT_EPOCH":11545,"BSTAR":1.8519e-5,"MEAN_MOTION_DOT":4.7e-7,"MEAN_MOTION_DDOT":0},{"OBJECT_NAME":"STARLINK-6148","OBJECT_ID":"2023-090S","EPOCH":"2025-07-27T20:29:46.467456","MEAN_MOTION":15.02543255,"ECCENTRICITY":0.000106,"INCLINATION":43.0046,"RA_OF_ASC_NODE":56.2222,"ARG_OF_PERICENTER":296.3444,"MEAN_ANOMALY":63.7289,"EPHEMERIS_TYPE":0,"CLASSIFICATION_TYPE":"U","NORAD_CAT_ID":57117,"ELEMENT_SET_NO":999,"REV_AT_EPOCH":11545,"BSTAR":-3.3653e-5,"MEAN_MOTION_DOT":-6.58e-6,"MEAN_MOTION_DDOT":0},{"OBJECT_NAME":"STARLINK-6151","OBJECT_ID":"2023-090T","EPOCH":"2025-07-27T12:36:45.755712","MEAN_MOTION":15.26564482,"ECCENTRICITY":0.0001774,"INCLINATION":42.9994,"RA_OF_ASC_NODE":46.1766,"ARG_OF_PERICENTER":291.5239,"MEAN_ANOMALY":68.5423,"EPHEMERIS_TYPE":0,"CLASSIFICATION_TYPE":"U","NORAD_CAT_ID":57118,"ELEMENT_SET_NO":999,"REV_AT_EPOCH":11668,"BSTAR":0.0041889,"MEAN_MOTION_DOT":0.00113238,"MEAN_MOTION_DDOT":0},{"OBJECT_NAME":"STARLINK-6150","OBJECT_ID":"2023-090U","EPOCH":"2025-07-27T20:23:22.553376","MEAN_MOTION":15.02537081,"ECCENTRICITY":0.0001104,"INCLINATION":43.0039,"RA_OF_ASC_NODE":56.1881,"ARG_OF_PERICENTER":279.2178,"MEAN_ANOMALY":80.8539,"EPHEMERIS_TYPE":0,"CLASSIFICATION_TYPE":"U","NORAD_CAT_ID":57119,"ELEMENT_SET_NO":999,"REV_AT_EPOCH":11545,"BSTAR":-1.4579e-5,"MEAN_MOTION_DOT":-4.01e-6,"MEAN_MOTION_DDOT":0},{"OBJECT_NAME":"STARLINK-6147","OBJECT_ID":"2023-090V","EPOCH":"2025-07-27T20:32:57.835680","MEAN_MOTION":15.02535735,"ECCENTRICITY":0.0001126,"INCLINATION":43.004,"RA_OF_ASC_NODE":56.2394,"ARG_OF_PERICENTER":270.0483,"MEAN_ANOMALY":90.0231,"EPHEMERIS_TYPE":0,"CLASSIFICATION_TYPE":"U","NORAD_CAT_ID":57120,"ELEMENT_SET_NO":999,"REV_AT_EPOCH":11545,"BSTAR":3.5638e-5,"MEAN_MOTION_DOT":2.78e-6,"MEAN_MOTION_DDOT":0},{"OBJECT_NAME":"STARLINK-6152","OBJECT_ID":"2023-090W","EPOCH":"2025-07-27T13:47:40.137504","MEAN_MOTION":15.02544141,"ECCENTRICITY":0.0001226,"INCLINATION":43.0048,"RA_OF_ASC_NODE":57.5659,"ARG_OF_PERICENTER":286.3322,"MEAN_ANOMALY":73.7385,"EPHEMERIS_TYPE":0,"CLASSIFICATION_TYPE":"U","NORAD_CAT_ID":57121,"ELEMENT_SET_NO":999,"REV_AT_EPOCH":11541,"BSTAR":-9.7186e-5,"MEAN_MOTION_DOT":-1.516e-5,"MEAN_MOTION_DDOT":0}]
