STARLINK-6097           
1 57105U 23090E   25208.62029982  .00000707  00000+0  67438-4 0  9992
2 57105  43.0025  57.9104 0000755 259.5945 100.4812 15.02528300115410
STARLINK-6118           
1 57106U 23090F   25208.01643296 -.00000729  00000+0 -38875-4 0  9995
2 57106  43.0046  61.1170 0000989 271.3717  88.7012 15.02542246116463
STARLINK-6131           
1 57107U 23090G   25208.26902218 -.00000020  00000+0  13591-4 0  9996
2 57107  43.0052  59.5762 0001244 267.2814  92.7886 15.02536348116501
STARLINK-6099           
1 57108U 23090H   25208.61695247 -.00000269  00000+0 -48542-5 0  9998
2 57108  43.0059  57.8851 0001156 268.7631  91.3079 15.02535366116557
STARLINK-6139           
1 57109U 23090J   25208.87287397  .00000309  00000+0  37960-4 0  9994
2 57109  43.0064  56.3689 0001280 268.5224  91.5472 15.02535044115451
STARLINK-6134           
1 57110U 23090K   25208.88396154  .00000848  00000+0  77782-4 0  9993
2 57110  43.0049  56.4499 0001207 272.2999  87.7705 15.02549435115451
STARLINK-6140           
1 57111U 23090L   25208.86066374  .00000316  00000+0  38432-4 0  9999
2 57111  43.0054  56.2739 0001259 265.0430  95.0269 15.02535688115452
STARLINK-6141           
1 57112U 23090M   25208.87731842  .00003892  00000+0  30302-3 0  9999
2 57112  43.0039  56.4005 0001290 274.7174  85.3521 15.02540250115455
STARLINK-6142           
1 57113U 23090N   25208.26791129  .00000634  00000+0  61989-4 0  9994
2 57113  43.0048  59.5697 0001244 266.4539  93.6161 15.02538082116508
STARLINK-6125           
1 57114U 23090P   25208.86288342 -.00000914  00000+0 -52598-4 0  9998
2 57114  43.0035  56.2939 0000925 273.9017  86.1720 15.02542867115454
STARLINK-6085           
1 57115U 23090Q   25208.63329250  .00015176  00000+0  10995-2 0  9995
2 57115  43.0028  57.1549 0003131 227.3790 132.6789 15.03770588116566
STARLINK-6129           
1 57116U 23090R   25208.86954913  .00000047  00000+0  18519-4 0  9994
2 57116  43.0022  56.3447 0000470 244.5080 115.5713 15.02532622115453
STARLINK-6148           
1 57117U 23090S   25208.85401004 -.00000658  00000+0 -33653-4 0  9998
2 57117  43.0046  56.2222 0001060 296.3444  63.7289 15.02543255115451
STARLINK-6151           
1 57118U 23090T   25208.52552958  .00113238  00000+0  41889-2 0  9993
2 57118  42.9994  46.1766 0001774 291.5239  68.5423 15.26564482116684
STARLINK-6150           
1 57119U 23090U   25208.84956659 -.00000401  00000+0 -14579-4 0  9992
2 57119  43.0039  56.1881 0001104 279.2178  80.8539 15.02537081115456
STARLINK-6147           
1 57120U 23090V   25208.85622495  .00000278  00000+0  35638-4 0  9992
2 57120  43.0040  56.2394 0001126 270.0483  90.0231 15.02535735115458
STARLINK-6152           
1 57121U 23090W   25208.57477011 -.00001516  00000+0 -97186-4 0  9998
2 57121  43.0048  57.5659 0001226 286.3322  73.7385 15.02544141115413
